{
  "type": "FeatureCollection",
  "features": [
    {
      "type": "Feature",
      "properties": {
        "norad_id": 66400,
        "name": "STARLINK-35667",
        "group": "last-30-days",
        "lat": 38.43105927512089,
        "lon": -20.693281070342433,
        "alt_km": 412.63525799595845,
        "timestamp": "2025-12-04T13:51:59.226062+00:00",
        "meta_object_name": "STARLINK-35667",
        "meta_object_id": "2025-257W",
        "meta_epoch": "2025-12-04T05:54:24.702336",
        "meta_mean_motion": 15.49350189,
        "meta_eccentricity": 0.00015234,
        "meta_inclination": 53.1594,
        "meta_ra_of_asc_node": 304.3879,
        "meta_arg_of_pericenter": 90.9477,
        "meta_mean_anomaly": 269.1707,
        "meta_ephemeris_type": 0,
        "meta_classification_type": "U",
        "meta_norad_cat_id": 66400,
        "meta_element_set_no": 999,
        "meta_rev_at_epoch": 506,
        "meta_bstar": 0.0020733438,
        "meta_mean_motion_dot": 0.00116771,
        "meta_mean_motion_ddot": 0,
        "tle_line1": "1 66400U 25257W   25338.24611924  .00116771  00000+0  20733-2 0  9996",
        "tle_line2": "2 66400  53.1594 304.3879 0001523  90.9477 269.1707 15.49350189  5064"
      },
      "geometry": {
        "type": "Point",
        "coordinates": [
          -20.693281070342433,
          38.43105927512089
        ]
      }
    },
    {
      "type": "Feature",
      "properties": {
        "norad_id": 66401,
        "name": "STARLINK-35668",
        "group": "last-30-days",
        "lat": 39.67397517636469,
        "lon": -18.749093926671588,
        "alt_km": 412.3382622956542,
        "timestamp": "2025-12-04T13:51:59.226074+00:00",
        "meta_object_name": "STARLINK-35668",
        "meta_object_id": "2025-257X",
        "meta_epoch": "2025-12-04T05:53:55.042944",
        "meta_mean_motion": 15.4936916,
        "meta_eccentricity": 0.00014232,
        "meta_inclination": 53.1592,
        "meta_ra_of_asc_node": 304.386,
        "meta_arg_of_pericenter": 91.0744,
        "meta_mean_anomaly": 269.0428,
        "meta_ephemeris_type": 0,
        "meta_classification_type": "U",
        "meta_norad_cat_id": 66401,
        "meta_element_set_no": 999,
        "meta_rev_at_epoch": 506,
        "meta_bstar": 0.0028142247,
        "meta_mean_motion_dot": 0.00159644,
        "meta_mean_motion_ddot": 0,
        "tle_line1": "1 66401U 25257X   25338.24577596  .00159644  00000+0  28142-2 0  9991",
        "tle_line2": "2 66401  53.1592 304.3860 0001423  91.0744 269.0428 15.49369160  5069"
      },
      "geometry": {
        "type": "Point",
        "coordinates": [
          -18.749093926671588,
          39.67397517636469
        ]
      }
    },
    {
      "type": "Feature",
      "properties": {
        "norad_id": 66402,
        "name": "STARLINK-35644",
        "group": "last-30-days",
        "lat": 37.17188390505247,
        "lon": -22.54778830538939,
        "alt_km": 412.92967619759384,
        "timestamp": "2025-12-04T13:51:59.226084+00:00",
        "meta_object_name": "STARLINK-35644",
        "meta_object_id": "2025-257Y",
        "meta_epoch": "2025-12-04T05:54:54.323712",
        "meta_mean_motion": 15.49343598,
        "meta_eccentricity": 0.00013272,
        "meta_inclination": 53.1593,
        "meta_ra_of_asc_node": 304.391,
        "meta_arg_of_pericenter": 80.5414,
        "meta_mean_anomaly": 279.5745,
        "meta_ephemeris_type": 0,
        "meta_classification_type": "U",
        "meta_norad_cat_id": 66402,
        "meta_element_set_no": 999,
        "meta_rev_at_epoch": 506,
        "meta_bstar": 0.0015421122,
        "meta_mean_motion_dot": 0.00086377,
        "meta_mean_motion_ddot": 0,
        "tle_line1": "1 66402U 25257Y   25338.24646208  .00086377  00000+0  15421-2 0  9997",
        "tle_line2": "2 66402  53.1593 304.3910 0001327  80.5414 279.5745 15.49343598  5062"
      },
      "geometry": {
        "type": "Point",
        "coordinates": [
          -22.54778830538939,
          37.17188390505247
        ]
      }
    },
    {
      "type": "Feature",
      "properties": {
        "norad_id": 66403,
        "name": "STARLINK-35602",
        "group": "last-30-days",
        "lat": 40.843987195539796,
        "lon": -16.802297381298548,
        "alt_km": 412.298904403684,
        "timestamp": "2025-12-04T13:51:59.226094+00:00",
        "meta_object_name": "STARLINK-35602",
        "meta_object_id": "2025-257Z",
        "meta_epoch": "2025-12-04T05:53:25.228896",
        "meta_mean_motion": 15.49358398,
        "meta_eccentricity": 0.00014154,
        "meta_inclination": 53.1592,
        "meta_ra_of_asc_node": 304.384,
        "meta_arg_of_pericenter": 92.9774,
        "meta_mean_anomaly": 267.1397,
        "meta_ephemeris_type": 0,
        "meta_classification_type": "U",
        "meta_norad_cat_id": 66403,
        "meta_element_set_no": 999,
        "meta_rev_at_epoch": 506,
        "meta_bstar": 0.0018043553,
        "meta_mean_motion_dot": 0.00101391,
        "meta_mean_motion_ddot": 0,
        "tle_line1": "1 66403U 25257Z   25338.24543089  .00101391  00000+0  18044-2 0  9999",
        "tle_line2": "2 66403  53.1592 304.3840 0001415  92.9774 267.1397 15.49358398  5068"
      },
      "geometry": {
        "type": "Point",
        "coordinates": [
          -16.802297381298548,
          40.843987195539796
        ]
      }
    },
    {
      "type": "Feature",
      "properties": {
        "norad_id": 66404,
        "name": "STARLINK-35691",
        "group": "last-30-days",
        "lat": 42.00106828146284,
        "lon": -14.749248439020613,
        "alt_km": 411.9717468044455,
        "timestamp": "2025-12-04T13:51:59.226104+00:00",
        "meta_object_name": "STARLINK-35691",
        "meta_object_id": "2025-257AA",
        "meta_epoch": "2025-12-04T05:52:55.658496",
        "meta_mean_motion": 15.49357701,
        "meta_eccentricity": 0.00014755,
        "meta_inclination": 53.1592,
        "meta_ra_of_asc_node": 304.3805,
        "meta_arg_of_pericenter": 90.49,
        "meta_mean_anomaly": 269.6279,
        "meta_ephemeris_type": 0,
        "meta_classification_type": "U",
        "meta_norad_cat_id": 66404,
        "meta_element_set_no": 999,
        "meta_rev_at_epoch": 506,
        "meta_bstar": 0.0024972692,
        "meta_mean_motion_dot": 0.0014122,
        "meta_mean_motion_ddot": 0,
        "tle_line1": "1 66404U 25257AA  25338.24508864  .00141220  00000+0  24973-2 0  9995",
        "tle_line2": "2 66404  53.1592 304.3805 0001475  90.4900 269.6279 15.49357701  5063"
      },
      "geometry": {
        "type": "Point",
        "coordinates": [
          -14.749248439020613,
          42.00106828146284
        ]
      }
    },
    {
      "type": "Feature",
      "properties": {
        "norad_id": 66405,
        "name": "STARLINK-35683",
        "group": "last-30-days",
        "lat": 43.09760401618673,
        "lon": -12.664563266137026,
        "alt_km": 412.0251847035779,
        "timestamp": "2025-12-04T13:51:59.226115+00:00",
        "meta_object_name": "STARLINK-35683",
        "meta_object_id": "2025-257AB",
        "meta_epoch": "2025-12-04T05:52:25.949856",
        "meta_mean_motion": 15.49347975,
        "meta_eccentricity": 0.00013881,
        "meta_inclination": 53.1592,
        "meta_ra_of_asc_node": 304.3779,
        "meta_arg_of_pericenter": 97.8325,
        "meta_mean_anomaly": 262.2842,
        "meta_ephemeris_type": 0,
        "meta_classification_type": "U",
        "meta_norad_cat_id": 66405,
        "meta_element_set_no": 999,
        "meta_rev_at_epoch": 499,
        "meta_bstar": 0.0016557715,
        "meta_mean_motion_dot": 0.00092868,
        "meta_mean_motion_ddot": 0,
        "tle_line1": "1 66405U 25257AB  25338.24474479  .00092868  00000+0  16558-2 0  9993",
        "tle_line2": "2 66405  53.1592 304.3779 0001388  97.8325 262.2842 15.49347975  4997"
      },
      "geometry": {
        "type": "Point",
        "coordinates": [
          -12.664563266137026,
          43.09760401618673
        ]
      }
    },
    {
      "type": "Feature",
      "properties": {
        "norad_id": 66406,
        "name": "STARLINK-34840",
        "group": "last-30-days",
        "lat": 46.19146540916025,
        "lon": -5.819009727819061,
        "alt_km": 411.12477158350976,
        "timestamp": "2025-12-04T13:51:59.226129+00:00",
        "meta_object_name": "STARLINK-34840",
        "meta_object_id": "2025-257AC",
        "meta_epoch": "2025-12-04T07:23:50.442144",
        "meta_mean_motion": 15.49362882,
        "meta_eccentricity": 0.00015895,
        "meta_inclination": 53.1589,
        "meta_ra_of_asc_node": 304.0631,
        "meta_arg_of_pericenter": 67.5792,
        "meta_mean_anomaly": 292.5385,
        "meta_ephemeris_type": 0,
        "meta_classification_type": "U",
        "meta_norad_cat_id": 66406,
        "meta_element_set_no": 999,
        "meta_rev_at_epoch": 501,
        "meta_bstar": 0.0025144603,
        "meta_mean_motion_dot": 0.0014224,
        "meta_mean_motion_ddot": 0,
        "tle_line1": "1 66406U 25257AC  25338.30822271  .00142240  00000+0  25145-2 0  9990",
        "tle_line2": "2 66406  53.1589 304.0631 0001589  67.5792 292.5385 15.49362882  5019"
      },
      "geometry": {
        "type": "Point",
        "coordinates": [
          -5.819009727819061,
          46.19146540916025
        ]
      }
    }
  ]
}